{
  "type": "FeatureCollection",
  "features": [
    {
      "type": "Feature",
      "properties": {
        "norad_id": 31878,
        "name": "FENGYUN 1C DEB",
        "group": "fengyun-1c-debris",
        "lat": 5.666374168666574,
        "lon": 80.47599488527732,
        "alt_km": 617.3352617119726,
        "timestamp": "2025-12-03T15:48:03.354680+00:00",
        "meta_object_name": "FENGYUN 1C DEB",
        "meta_object_id": "1999-025CKD",
        "meta_epoch": "2025-12-03T00:27:41.548032",
        "meta_mean_motion": 14.85464766,
        "meta_eccentricity": 0.00842743,
        "meta_inclination": 99.4399,
        "meta_ra_of_asc_node": 258.7733,
        "meta_arg_of_pericenter": 269.6043,
        "meta_mean_anomaly": 89.551,
        "meta_ephemeris_type": 0,
        "meta_classification_type": "U",
        "meta_norad_cat_id": 31878,
        "meta_element_set_no": 999,
        "meta_rev_at_epoch": 97949,
        "meta_bstar": 0.0019397439,
        "meta_mean_motion_dot": 0.000178,
        "meta_mean_motion_ddot": 0,
        "tle_line1": "1 31878U 99025CKD 25337.01923088  .00017800  00000+0  19397-2 0  9999",
        "tle_line2": "2 31878  99.4399 258.7733 0084274 269.6043  89.5510 14.85464766979499"
      },
      "geometry": {
        "type": "Point",
        "coordinates": [
          80.47599488527732,
          5.666374168666574
        ]
      }
    },
    {
      "type": "Feature",
      "properties": {
        "norad_id": 31879,
        "name": "FENGYUN 1C DEB",
        "group": "fengyun-1c-debris",
        "lat": -77.82847124475661,
        "lon": -92.60003980185805,
        "alt_km": 878.8286925728644,
        "timestamp": "2025-12-03T15:48:03.354690+00:00",
        "meta_object_name": "FENGYUN 1C DEB",
        "meta_object_id": "1999-025CKE",
        "meta_epoch": "2025-12-03T02:52:21.762048",
        "meta_mean_motion": 14.42862537,
        "meta_eccentricity": 0.02099364,
        "meta_inclination": 99.7083,
        "meta_ra_of_asc_node": 214.253,
        "meta_arg_of_pericenter": 64.5696,
        "meta_mean_anomaly": 297.7054,
        "meta_ephemeris_type": 0,
        "meta_classification_type": "U",
        "meta_norad_cat_id": 31879,
        "meta_element_set_no": 999,
        "meta_rev_at_epoch": 63071,
        "meta_bstar": 0.00039910887,
        "meta_mean_motion_dot": 1.674e-05,
        "meta_mean_motion_ddot": 0,
        "tle_line1": "1 31879U 99025CKE 25337.11969632  .00001674  00000+0  39911-3 0  9993",
        "tle_line2": "2 31879  99.7083 214.2530 0209936  64.5696 297.7054 14.42862537630711"
      },
      "geometry": {
        "type": "Point",
        "coordinates": [
          -92.60003980185805,
          -77.82847124475661
        ]
      }
    },
    {
      "type": "Feature",
      "properties": {
        "norad_id": 31880,
        "name": "FENGYUN 1C DEB",
        "group": "fengyun-1c-debris",
        "lat": 42.67179079452827,
        "lon": -30.838517268261345,
        "alt_km": 853.8307960208658,
        "timestamp": "2025-12-03T15:48:03.354699+00:00",
        "meta_object_name": "FENGYUN 1C DEB",
        "meta_object_id": "1999-025CKF",
        "meta_epoch": "2025-11-25T04:55:41.522880",
        "meta_mean_motion": 13.89366235,
        "meta_eccentricity": 0.01285165,
        "meta_inclination": 100.0297,
        "meta_ra_of_asc_node": 130.6763,
        "meta_arg_of_pericenter": 197.7169,
        "meta_mean_anomaly": 161.9484,
        "meta_ephemeris_type": 0,
        "meta_classification_type": "U",
        "meta_norad_cat_id": 31880,
        "meta_element_set_no": 999,
        "meta_rev_at_epoch": 62736,
        "meta_bstar": 0.0005535194,
        "meta_mean_motion_dot": 6.7e-06,
        "meta_mean_motion_ddot": 0,
        "tle_line1": "1 31880U 99025CKF 25329.20534170  .00000670  00000+0  55352-3 0  9993",
        "tle_line2": "2 31880 100.0297 130.6763 0128516 197.7169 161.9484 13.89366235627363"
      },
      "geometry": {
        "type": "Point",
        "coordinates": [
          -30.838517268261345,
          42.67179079452827
        ]
      }
    },
    {
      "type": "Feature",
      "properties": {
        "norad_id": 31882,
        "name": "FENGYUN 1C DEB",
        "group": "fengyun-1c-debris",
        "lat": 26.163238127237477,
        "lon": -104.19740610779897,
        "alt_km": 866.502508354306,
        "timestamp": "2025-12-03T15:48:03.354708+00:00",
        "meta_object_name": "FENGYUN 1C DEB",
        "meta_object_id": "1999-025CKH",
        "meta_epoch": "2025-11-30T12:53:42.925632",
        "meta_mean_motion": 14.12922645,
        "meta_eccentricity": 0.003563,
        "meta_inclination": 98.9155,
        "meta_ra_of_asc_node": 257.1184,
        "meta_arg_of_pericenter": 260.5301,
        "meta_mean_anomaly": 99.1843,
        "meta_ephemeris_type": 0,
        "meta_classification_type": "U",
        "meta_norad_cat_id": 31882,
        "meta_element_set_no": 999,
        "meta_rev_at_epoch": 58464,
        "meta_bstar": 0.00072141,
        "meta_mean_motion_dot": 1.307e-05,
        "meta_mean_motion_ddot": 0,
        "tle_line1": "1 31882U 99025CKH 25334.53730238  .00001307  00000+0  72141-3 0  9993",
        "tle_line2": "2 31882  98.9155 257.1184 0035630 260.5301  99.1843 14.12922645584640"
      },
      "geometry": {
        "type": "Point",
        "coordinates": [
          -104.19740610779897,
          26.163238127237477
        ]
      }
    },
    {
      "type": "Feature",
      "properties": {
        "norad_id": 31883,
        "name": "FENGYUN 1C DEB",
        "group": "fengyun-1c-debris",
        "lat": 75.83281792169193,
        "lon": 112.39785166723094,
        "alt_km": 573.4185302014757,
        "timestamp": "2025-12-03T15:48:03.354717+00:00",
        "meta_object_name": "FENGYUN 1C DEB",
        "meta_object_id": "1999-025CKJ",
        "meta_epoch": "2025-12-03T05:31:55.263936",
        "meta_mean_motion": 14.67606056,
        "meta_eccentricity": 0.01252705,
        "meta_inclination": 99.0277,
        "meta_ra_of_asc_node": 252.8895,
        "meta_arg_of_pericenter": 98.143,
        "meta_mean_anomaly": 263.4004,
        "meta_ephemeris_type": 0,
        "meta_classification_type": "U",
        "meta_norad_cat_id": 31883,
        "meta_element_set_no": 999,
        "meta_rev_at_epoch": 97839,
        "meta_bstar": 0.00088311327,
        "meta_mean_motion_dot": 5.586e-05,
        "meta_mean_motion_ddot": 0,
        "tle_line1": "1 31883U 99025CKJ 25337.23050074  .00005586  00000+0  88311-3 0  9996",
        "tle_line2": "2 31883  99.0277 252.8895 0125270  98.1430 263.4004 14.67606056978396"
      },
      "geometry": {
        "type": "Point",
        "coordinates": [
          112.39785166723094,
          75.83281792169193
        ]
      }
    },
    {
      "type": "Feature",
      "properties": {
        "norad_id": 31887,
        "name": "FENGYUN 1C DEB",
        "group": "fengyun-1c-debris",
        "lat": -25.522825100253055,
        "lon": -156.65652588321115,
        "alt_km": 723.5384866921377,
        "timestamp": "2025-12-03T15:48:03.354726+00:00",
        "meta_object_name": "FENGYUN 1C DEB",
        "meta_object_id": "1999-025CKN",
        "meta_epoch": "2025-12-01T21:40:30.420768",
        "meta_mean_motion": 14.57640474,
        "meta_eccentricity": 0.00244837,
        "meta_inclination": 99.536,
        "meta_ra_of_asc_node": 25.9385,
        "meta_arg_of_pericenter": 37.5978,
        "meta_mean_anomaly": 322.6923,
        "meta_ephemeris_type": 0,
        "meta_classification_type": "U",
        "meta_norad_cat_id": 31887,
        "meta_element_set_no": 999,
        "meta_rev_at_epoch": 96450,
        "meta_bstar": 0.0013108732,
        "meta_mean_motion_dot": 5.945e-05,
        "meta_mean_motion_ddot": 0,
        "tle_line1": "1 31887U 99025CKN 25335.90312987  .00005945  00000+0  13109-2 0  9997",
        "tle_line2": "2 31887  99.5360  25.9385 0024483  37.5978 322.6923 14.57640474964506"
      },
      "geometry": {
        "type": "Point",
        "coordinates": [
          -156.65652588321115,
          -25.522825100253055
        ]
      }
    },
    {
      "type": "Feature",
      "properties": {
        "norad_id": 31888,
        "name": "FENGYUN 1C DEB",
        "group": "fengyun-1c-debris",
        "lat": -60.846150671372676,
        "lon": -79.66914399767883,
        "alt_km": 777.8297275327013,
        "timestamp": "2025-12-03T15:48:03.354735+00:00",
        "meta_object_name": "FENGYUN 1C DEB",
        "meta_object_id": "1999-025CKP",
        "meta_epoch": "2025-11-28T00:25:18.962112",
        "meta_mean_motion": 14.3367913,
        "meta_eccentricity": 0.00183068,
        "meta_inclination": 99.1503,
        "meta_ra_of_asc_node": 257.5749,
        "meta_arg_of_pericenter": 264.7226,
        "meta_mean_anomaly": 95.1868,
        "meta_ephemeris_type": 0,
        "meta_classification_type": "U",
        "meta_norad_cat_id": 31888,
        "meta_element_set_no": 999,
        "meta_rev_at_epoch": 95426,
        "meta_bstar": 0.002133667,
        "meta_mean_motion_dot": 5.886e-05,
        "meta_mean_motion_ddot": 0,
        "tle_line1": "1 31888U 99025CKP 25332.01758058  .00005886  00000+0  21337-2 0  9996",
        "tle_line2": "2 31888  99.1503 257.5749 0018306 264.7226  95.1868 14.33679130954263"
      },
      "geometry": {
        "type": "Point",
        "coordinates": [
          -79.66914399767883,
          -60.846150671372676
        ]
      }
    }
  ]
}